OBJECT_NAME,OBJECT_ID,EPOCH,MEAN_MOTION,ECCENTRICITY,INCLINATION,RA_OF_ASC_NODE,ARG_OF_PERICENTER,MEAN_ANOMALY,EPHEMERIS_TYPE,CLASSIFICATION_TYPE,NORAD_CAT_ID,ELEMENT_SET_NO,REV_AT_EPOCH,BSTAR,MEAN_MOTION_DOT,MEAN_MOTION_DDOT
STARLINK-31515,2024-068X,2026-06-05T23:10:18.393024,15.27586497,.0001065,43.0023,255.9531,273.4285,86.6445,0,U,59476,999,12202,.6532E-4,.1536E-4,0
STARLINK-31531,2024-068Y,2026-06-05T09:43:55.988832,15.27579351,.00010901,42.9980,203.9902,257.7119,102.3611,0,U,59477,999,12256,.26835353E-4,.477E-5,0
STARLINK-31753,2024-071A,2026-06-05T10:20:59.071200,15.27570990,.00014511,42.9959,204.3037,261.0515,99.0173,0,U,59484,999,12162,.3146253E-5,-.175E-5,0
STARLINK-31733,2024-071C,2026-06-05T09:38:24.711360,15.27581458,.00016261,43.0000,204.0802,252.2280,107.8394,0,U,59486,999,12162,.45056678E-4,.978E-5,0
STARLINK-31657,2024-071D,2026-06-05T10:02:27.873024,15.27587736,.00006677,42.9962,204.2060,252.3092,107.7686,0,U,59487,999,12162,.91899552E-4,.2268E-4,0
STARLINK-31754,2024-071E,2026-06-02T12:45:26.980992,15.27577975,.0001245,43.0021,228.1670,244.9537,115.1185,0,U,59488,999,12109,.30648E-4,.581E-5,0
STARLINK-31638,2024-071F,2026-06-05T10:00:37.003680,15.27586373,.00009502,42.9963,204.1930,269.0070,91.0673,0,U,59489,999,12162,.11913923E-3,.3019E-4,0
STARLINK-31670,2024-071G,2026-06-05T10:28:20.769600,15.27584792,.00012587,42.9995,215.6113,269.8974,90.1734,0,U,59490,999,12149,.60763114E-4,.1411E-4,0
STARLINK-31712,2024-071H,2026-06-05T10:30:11.784096,15.27586133,.00012918,42.9976,215.5994,265.6821,94.3883,0,U,59491,999,12149,.28388398E-3,.7559E-4,0
STARLINK-31684,2024-071J,2026-06-01T07:02:00.170592,15.27584089,.00025493,42.9922,235.1989,171.2206,188.8691,0,U,59492,999,12090,.10180997E-3,.2541E-4,0
STARLINK-31678,2024-071K,2026-06-05T10:04:59.115360,15.27581253,.00017939,43.0014,212.0068,278.6509,81.4139,0,U,59493,999,12035,.49791829E-4,.1108E-4,0
STARLINK-31744,2024-071L,2026-06-02T12:56:33.200160,15.27576238,.0001369,43.0012,228.2260,274.9961,85.0734,0,U,59494,999,12109,.50653E-4,.1132E-4,0
STARLINK-31719,2024-071M,2026-06-05T10:39:28.105056,15.27591582,.00011998,43.0014,204.4027,274.3600,85.7114,0,U,59495,999,12162,.76459034E-4,.1843E-4,0
STARLINK-31728,2024-071N,2026-06-05T14:52:20.082432,15.27588029,.00015598,42.9989,203.1321,277.8519,82.2156,0,U,59496,999,12165,.66555326E-3,.18102E-3,0
STARLINK-31720,2024-071P,2026-06-01T12:54:09.188640,15.27569868,.00010661,43.0013,226.6883,285.7720,74.3014,0,U,59497,999,12102,.41333848E-4,.875E-5,0
STARLINK-31731,2024-071Q,2026-06-05T09:36:34.051104,15.27581605,.00017046,43.0014,204.0706,265.6002,94.4655,0,U,59498,999,12162,.54693088E-4,.1243E-4,0
STARLINK-31742,2024-071R,2026-06-05T09:49:30.752544,15.27580811,.00015539,42.9990,204.1347,270.1375,89.9298,0,U,59499,999,12162,.68609604E-4,.1626E-4,0
STARLINK-31512,2024-071S,2026-06-05T07:45:37.481472,15.27575899,.00008097,42.9998,164.6847,275.6286,84.4473,0,U,59500,999,12206,.3641829E-5,-.162E-5,0
STARLINK-31458,2024-071T,2026-06-05T14:39:23.564160,15.27584958,.00014133,42.9997,203.0674,273.6307,86.4383,0,U,59501,999,12165,.75279477E-4,.181E-4,0
STARLINK-31357,2024-071U,2026-06-01T04:50:24.600768,15.27584462,.00011168,43.0003,228.4574,247.5309,112.5425,0,U,59502,999,12097,.275046E-5,-.186E-5,0
STARLINK-31508,2024-071V,2026-06-02T12:19:05.378880,15.27576401,.0001393,43.0022,221.1053,268.0519,92.0173,0,U,59503,999,12117,.40488E-4,.852E-5,0
STARLINK-31535,2024-071W,2026-06-05T10:10:29.236800,15.27622666,.00006813,43.0001,212.0291,238.4672,121.6113,0,U,59504,999,12153,.25564746E-3,.6788E-4,0
STARLINK-31533,2024-071X,2026-06-05T09:33:04.241664,15.27580982,.00014037,43.0013,204.9136,251.2628,108.8072,0,U,59505,999,12161,.44523311E-4,.963E-5,0
STARLINK-31524,2024-071Y,2026-06-02T11:54:31.488192,15.27581778,.0001076,43.0005,213.8589,236.3289,123.7460,0,U,59506,999,12125,.64883E-4,.1524E-4,0
STARLINK-31635,2024-073A,2026-06-01T05:05:14.723808,15.27575835,.00014286,43.0032,205.9614,276.2836,83.7852,0,U,59511,999,11895,.62516354E-4,.1458E-4,0
STARLINK-31650,2024-073B,2026-06-05T13:31:22.768608,15.27573096,.00015248,43.0014,181.8519,265.1437,94.9241,0,U,59512,999,11961,-.18402012E-4,-.768E-5,0
STARLINK-31658,2024-073C,2026-06-05T15:45:51.611040,15.27566859,.00007186,43.0032,140.9548,283.5443,76.5328,0,U,59513,999,12008,-.44325097E-4,-.1481E-4,0
STARLINK-31669,2024-073E,2026-06-05T08:11:54.112128,15.27582914,.00015769,43.0020,182.7692,270.5859,89.4812,0,U,59515,999,11958,.36679989E-4,.747E-5,0
STARLINK-31671,2024-073F,2026-06-05T09:03:43.304256,15.27581667,.00010728,42.9972,183.0311,273.7564,86.3165,0,U,59516,999,11958,.16637616E-3,.4319E-4,0
STARLINK-31674,2024-073G,2026-06-05T08:28:33.510432,15.27580143,.0000621,42.9981,182.8525,274.5551,85.5229,0,U,59517,999,11958,.294142E-4,.548E-5,0
