[ {"name": "STARLINK-31515", "line1": "1 59476U 24068X   26156.96549066  .00001536  00000+0  65320-4 0  9990", "line2": "2 59476  43.0023 255.9531 0001065 273.4285  86.6445 15.27586497122022"}, {"name": "STARLINK-31531", "line1": "1 59477U 24068Y   26156.40550913  .00000477  00000+0  26835-4 0  9994", "line2": "2 59477  42.9980 203.9902 0001090 257.7119 102.3611 15.27579351122568"}, {"name": "STARLINK-31753", "line1": "1 59484U 24071A   26156.43123925 -.00000175  00000+0  31463-5 0  9998", "line2": "2 59484  42.9959 204.3037 0001451 261.0515  99.0173 15.27570990121626"}, {"name": "STARLINK-31733", "line1": "1 59486U 24071C   26156.40167490  .00000978  00000+0  45057-4 0  9995", "line2": "2 59486  43.0000 204.0802 0001626 252.2280 107.8394 15.27581458121623"}, {"name": "STARLINK-31657", "line1": "1 59487U 24071D   26156.41837816  .00002268  00000+0  91900-4 0  9995", "line2": "2 59487  42.9962 204.2060 0000667 252.3092 107.7686 15.27587736121621"}, {"name": "STARLINK-31754", "line1": "1 59488U 24071E   26153.53156228  .00000581  00000+0  30648-4 0  9995", "line2": "2 59488  43.0021 228.1670 0001245 244.9537 115.1185 15.27577975121098"}, {"name": "STARLINK-31638", "line1": "1 59489U 24071F   26156.41709495  .00003019  00000+0  11914-3 0  9999", "line2": "2 59489  42.9963 204.1930 0000950 269.0070  91.0673 15.27586373121622"}, {"name": "STARLINK-31670", "line1": "1 59490U 24071G   26156.43635150  .00001411  00000+0  60763-4 0  9990", "line2": "2 59490  42.9995 215.6113 0001258 269.8974  90.1734 15.27584792121498"}, {"name": "STARLINK-31712", "line1": "1 59491U 24071H   26156.43763639  .00007559  00000+0  28388-3 0  9990", "line2": "2 59491  42.9976 215.5994 0001291 265.6821  94.3883 15.27586133121498"}, {"name": "STARLINK-31684", "line1": "1 59492U 24071J   26152.29305753  .00002541  00000+0  10181-3 0  9998", "line2": "2 59492  42.9922 235.1989 0002549 171.2206 188.8691 15.27584089120907"}, {"name": "STARLINK-31678", "line1": "1 59493U 24071K   26156.42012865  .00001108  00000+0  49792-4 0  9996", "line2": "2 59493  43.0014 212.0068 0001793 278.6509  81.4139 15.27581253120356"}, {"name": "STARLINK-31744", "line1": "1 59494U 24071L   26153.53927315  .00001132  00000+0  50653-4 0  9996", "line2": "2 59494  43.0012 228.2260 0001369 274.9961  85.0734 15.27576238121098"}, {"name": "STARLINK-31719", "line1": "1 59495U 24071M   26156.44407529  .00001843  00000+0  76459-4 0  9991", "line2": "2 59495  43.0014 204.4027 0001199 274.3600  85.7114 15.27591582121620"}, {"name": "STARLINK-31728", "line1": "1 59496U 24071N   26156.61967688  .00018102  00000+0  66555-3 0  9999", "line2": "2 59496  42.9989 203.1321 0001559 277.8519  82.2156 15.27588029121653"}, {"name": "STARLINK-31720", "line1": "1 59497U 24071P   26152.53760635  .00000875  00000+0  41334-4 0  9997", "line2": "2 59497  43.0013 226.6883 0001066 285.7720  74.3014 15.27569868121028"}, {"name": "STARLINK-31731", "line1": "1 59498U 24071Q   26156.40039411  .00001243  00000+0  54693-4 0  9991", "line2": "2 59498  43.0014 204.0706 0001704 265.6002  94.4655 15.27581605121626"}, {"name": "STARLINK-31742", "line1": "1 59499U 24071R   26156.40938371  .00001626  00000+0  68610-4 0  9994", "line2": "2 59499  42.9990 204.1347 0001553 270.1375  89.9298 15.27580811121626"}, {"name": "STARLINK-31512", "line1": "1 59500U 24071S   26156.32335048 -.00000162  00000+0  36418-5 0  9997", "line2": "2 59500  42.9998 164.6847 0000809 275.6286  84.4473 15.27575899122060"}, {"name": "STARLINK-31458", "line1": "1 59501U 24071T   26156.61068940  .00001810  00000+0  75279-4 0  9991", "line2": "2 59501  42.9997 203.0674 0001413 273.6307  86.4383 15.27584958121652"}, {"name": "STARLINK-31357", "line1": "1 59502U 24071U   26152.20167362 -.00000186  00000+0  27505-5 0  9997", "line2": "2 59502  43.0003 228.4574 0001116 247.5309 112.5425 15.27584462120977"}, {"name": "STARLINK-31508", "line1": "1 59503U 24071V   26153.51325670  .00000852  00000+0  40488-4 0  9994", "line2": "2 59503  43.0022 221.1053 0001393 268.0519  92.0173 15.27576401121178"}, {"name": "STARLINK-31535", "line1": "1 59504U 24071W   26156.42394950  .00006788  00000+0  25565-3 0  9997", "line2": "2 59504  43.0001 212.0291 0000681 238.4672 121.6113 15.27622666121537"}, {"name": "STARLINK-31533", "line1": "1 59505U 24071X   26156.39796576  .00000963  00000+0  44523-4 0  9999", "line2": "2 59505  43.0013 204.9136 0001403 251.2628 108.8072 15.27580982121610"}, {"name": "STARLINK-31524", "line1": "1 59506U 24071Y   26153.49619778  .00001524  00000+0  64883-4 0  9991", "line2": "2 59506  43.0005 213.8589 0001076 236.3289 123.7460 15.27581778121257"}, {"name": "STARLINK-31635", "line1": "1 59511U 24073A   26152.21197597  .00001458  00000+0  62516-4 0  9995", "line2": "2 59511  43.0032 205.9614 0001428 276.2836  83.7852 15.27575835118956"}, {"name": "STARLINK-31650", "line1": "1 59512U 24073B   26156.56345797 -.00000768  00000+0 -18402-4 0  9995", "line2": "2 59512  43.0014 181.8519 0001524 265.1437  94.9241 15.27573096119611"}, {"name": "STARLINK-31658", "line1": "1 59513U 24073C   26156.65684735 -.00001481  00000+0 -44325-4 0  9990", "line2": "2 59513  43.0032 140.9548 0000718 283.5443  76.5328 15.27566859120089"}, {"name": "STARLINK-31669", "line1": "1 59515U 24073E   26156.34159852  .00000747  00000+0  36680-4 0  9992", "line2": "2 59515  43.0020 182.7692 0001576 270.5859  89.4812 15.27582914119586"}, {"name": "STARLINK-31671", "line1": "1 59516U 24073F   26156.37758454  .00004319  00000+0  16638-3 0  9998", "line2": "2 59516  42.9972 183.0311 0001072 273.7564  86.3165 15.27581667119583"}, {"name": "STARLINK-31674", "line1": "1 59517U 24073G   26156.35316563  .00000548  00000+0  29414-4 0  9995", "line2": "2 59517  42.9981 182.8525 0000621 274.5551  85.5229 15.27580143119582"}]